[{"OBJECT_NAME":"STARLINK-34922","OBJECT_ID":"2025-184A","EPOCH":"2026-03-09T16:41:02.223168","MEAN_MOTION":15.0565116,"ECCENTRICITY":9.631e-5,"INCLINATION":97.6036,"RA_OF_ASC_NODE":122.6941,"ARG_OF_PERICENTER":216.5585,"MEAN_ANOMALY":143.5576,"EPHEMERIS_TYPE":0,"CLASSIFICATION_TYPE":"U","NORAD_CAT_ID":65273,"ELEMENT_SET_NO":999,"REV_AT_EPOCH":3130,"BSTAR":0.00042586516,"MEAN_MOTION_DOT":6.089e-5,"MEAN_MOTION_DDOT":0},{"OBJECT_NAME":"IRIDIUM 33 DEB","OBJECT_ID":"1997-051QE","EPOCH":"2026-03-07T09:35:18.798432","MEAN_MOTION":15.07266806,"ECCENTRICITY":0.0013423,"INCLINATION":86.3519,"RA_OF_ASC_NODE":312.8742,"ARG_OF_PERICENTER":171.2899,"MEAN_ANOMALY":188.8573,"EPHEMERIS_TYPE":0,"CLASSIFICATION_TYPE":"U","NORAD_CAT_ID":35484,"ELEMENT_SET_NO":999,"REV_AT_EPOCH":63287,"BSTAR":0.0040001,"MEAN_MOTION_DOT":0.00060878,"MEAN_MOTION_DDOT":0}]
